{
  "type": "FeatureCollection",
  "features": [
    {
      "type": "Feature",
      "properties": {
        "norad_id": 66760,
        "name": "TRANSPORTER-15 CY",
        "group": "last-30-days",
        "lat": -72.4374558379193,
        "lon": 89.75911335973441,
        "alt_km": 519.7520519202153,
        "timestamp": "2025-12-19T16:54:42.967866+00:00",
        "meta_object_name": "TRANSPORTER-15 CY",
        "meta_object_id": "2025-276CY",
        "meta_epoch": "2025-12-19T04:34:57.780192",
        "meta_mean_motion": 15.18145931,
        "meta_eccentricity": 0.00014629,
        "meta_inclination": 97.441,
        "meta_ra_of_asc_node": 64.8641,
        "meta_arg_of_pericenter": 115.3948,
        "meta_mean_anomaly": 244.7438,
        "meta_ephemeris_type": 0,
        "meta_classification_type": "U",
        "meta_norad_cat_id": 66760,
        "meta_element_set_no": 999,
        "meta_rev_at_epoch": 310,
        "meta_bstar": 0.00021222219,
        "meta_mean_motion_dot": 4.266e-05,
        "meta_mean_motion_ddot": 0,
        "tle_line1": "1 66760U 25276CY  25353.19094653  .00004266  00000+0  21222-3 0  9991",
        "tle_line2": "2 66760  97.4410  64.8641 0001462 115.3948 244.7438 15.18145931  3109"
      },
      "geometry": {
        "type": "Point",
        "coordinates": [
          89.75911335973441,
          -72.4374558379193
        ]
      }
    },
    {
      "type": "Feature",
      "properties": {
        "norad_id": 66761,
        "name": "TRANSPORTER-15 CZ",
        "group": "last-30-days",
        "lat": -62.42139137748697,
        "lon": 79.86494292631764,
        "alt_km": 518.8589223622093,
        "timestamp": "2025-12-19T16:54:42.967878+00:00",
        "meta_object_name": "TRANSPORTER-15 CZ",
        "meta_object_id": "2025-276CZ",
        "meta_epoch": "2025-12-19T04:32:15.985824",
        "meta_mean_motion": 15.18401007,
        "meta_eccentricity": 0.00014611,
        "meta_inclination": 97.4412,
        "meta_ra_of_asc_node": 64.8664,
        "meta_arg_of_pericenter": 126.7792,
        "meta_mean_anomaly": 233.3577,
        "meta_ephemeris_type": 0,
        "meta_classification_type": "U",
        "meta_norad_cat_id": 66761,
        "meta_element_set_no": 999,
        "meta_rev_at_epoch": 310,
        "meta_bstar": 0.00038244752,
        "meta_mean_motion_dot": 7.801e-05,
        "meta_mean_motion_ddot": 0,
        "tle_line1": "1 66761U 25276CZ  25353.18907391  .00007801  00000+0  38245-3 0  9994",
        "tle_line2": "2 66761  97.4412  64.8664 0001461 126.7792 233.3577 15.18401007  3106"
      },
      "geometry": {
        "type": "Point",
        "coordinates": [
          79.86494292631764,
          -62.42139137748697
        ]
      }
    },
    {
      "type": "Feature",
      "properties": {
        "norad_id": 66762,
        "name": "TRANSPORTER-15 DA",
        "group": "last-30-days",
        "lat": -43.21162854841359,
        "lon": -121.708478003684,
        "alt_km": 520.5406306876857,
        "timestamp": "2025-12-19T16:54:42.967889+00:00",
        "meta_object_name": "TRANSPORTER-15 DA",
        "meta_object_id": "2025-276DA",
        "meta_epoch": "2025-12-19T03:16:01.359840",
        "meta_mean_motion": 15.17269964,
        "meta_eccentricity": 0.00010143,
        "meta_inclination": 97.4421,
        "meta_ra_of_asc_node": 64.7868,
        "meta_arg_of_pericenter": 293.857,
        "meta_mean_anomaly": 66.2557,
        "meta_ephemeris_type": 0,
        "meta_classification_type": "U",
        "meta_norad_cat_id": 66762,
        "meta_element_set_no": 999,
        "meta_rev_at_epoch": 309,
        "meta_bstar": 0.00015780813,
        "meta_mean_motion_dot": 3.075e-05,
        "meta_mean_motion_ddot": 0,
        "tle_line1": "1 66762U 25276DA  25353.13612685  .00003075  00000+0  15781-3 0  9998",
        "tle_line2": "2 66762  97.4421  64.7868 0001014 293.8570  66.2557 15.17269964  3098"
      },
      "geometry": {
        "type": "Point",
        "coordinates": [
          -121.708478003684,
          -43.21162854841359
        ]
      }
    },
    {
      "type": "Feature",
      "properties": {
        "norad_id": 66763,
        "name": "TRANSPORTER-15 DB",
        "group": "last-30-days",
        "lat": -52.591333637494245,
        "lon": -124.48837410802855,
        "alt_km": 519.9037924473005,
        "timestamp": "2025-12-19T16:54:42.967899+00:00",
        "meta_object_name": "TRANSPORTER-15 DB",
        "meta_object_id": "2025-276DB",
        "meta_epoch": "2025-12-19T04:48:31.441824",
        "meta_mean_motion": 15.17397632,
        "meta_eccentricity": 0.00013768,
        "meta_inclination": 97.4424,
        "meta_ra_of_asc_node": 64.8576,
        "meta_arg_of_pericenter": 265.8395,
        "meta_mean_anomaly": 94.2681,
        "meta_ephemeris_type": 0,
        "meta_classification_type": "U",
        "meta_norad_cat_id": 66763,
        "meta_element_set_no": 999,
        "meta_rev_at_epoch": 310,
        "meta_bstar": 0.00015450986,
        "meta_mean_motion_dot": 3.021e-05,
        "meta_mean_motion_ddot": 0,
        "tle_line1": "1 66763U 25276DB  25353.20036391  .00003021  00000+0  15451-3 0  9996",
        "tle_line2": "2 66763  97.4424  64.8576 0001376 265.8395  94.2681 15.17397632  3109"
      },
      "geometry": {
        "type": "Point",
        "coordinates": [
          -124.48837410802855,
          -52.591333637494245
        ]
      }
    },
    {
      "type": "Feature",
      "properties": {
        "norad_id": 66764,
        "name": "TRANSPORTER-15 DC",
        "group": "last-30-days",
        "lat": -72.52326484492069,
        "lon": -139.1717492750527,
        "alt_km": 519.3300262708053,
        "timestamp": "2025-12-19T16:54:42.967909+00:00",
        "meta_object_name": "TRANSPORTER-15 DC",
        "meta_object_id": "2025-276DC",
        "meta_epoch": "2025-12-19T03:08:11.311008",
        "meta_mean_motion": 15.17663008,
        "meta_eccentricity": 0.00017419,
        "meta_inclination": 97.4417,
        "meta_ra_of_asc_node": 64.7924,
        "meta_arg_of_pericenter": 213.8935,
        "meta_mean_anomaly": 146.2188,
        "meta_ephemeris_type": 0,
        "meta_classification_type": "U",
        "meta_norad_cat_id": 66764,
        "meta_element_set_no": 999,
        "meta_rev_at_epoch": 309,
        "meta_bstar": 0.00013127356,
        "meta_mean_motion_dot": 2.576e-05,
        "meta_mean_motion_ddot": 0,
        "tle_line1": "1 66764U 25276DC  25353.13068647  .00002576  00000+0  13127-3 0  9990",
        "tle_line2": "2 66764  97.4417  64.7924 0001741 213.8935 146.2188 15.17663008  3098"
      },
      "geometry": {
        "type": "Point",
        "coordinates": [
          -139.1717492750527,
          -72.52326484492069
        ]
      }
    },
    {
      "type": "Feature",
      "properties": {
        "norad_id": 66765,
        "name": "TRANSPORTER-15 DD",
        "group": "last-30-days",
        "lat": -47.42289337152525,
        "lon": 73.56697386951379,
        "alt_km": 517.9584876349008,
        "timestamp": "2025-12-19T16:54:42.967919+00:00",
        "meta_object_name": "TRANSPORTER-15 DD",
        "meta_object_id": "2025-276DD",
        "meta_epoch": "2025-12-19T04:28:18.943968",
        "meta_mean_motion": 15.18646137,
        "meta_eccentricity": 0.00017533,
        "meta_inclination": 97.4435,
        "meta_ra_of_asc_node": 64.8761,
        "meta_arg_of_pericenter": 122.6282,
        "meta_mean_anomaly": 237.5122,
        "meta_ephemeris_type": 0,
        "meta_classification_type": "U",
        "meta_norad_cat_id": 66765,
        "meta_element_set_no": 999,
        "meta_rev_at_epoch": 310,
        "meta_bstar": 0.00039879585,
        "meta_mean_motion_dot": 8.196e-05,
        "meta_mean_motion_ddot": 0,
        "tle_line1": "1 66765U 25276DD  25353.18633037  .00008196  00000+0  39880-3 0  9995",
        "tle_line2": "2 66765  97.4435  64.8761 0001753 122.6282 237.5122 15.18646137  3103"
      },
      "geometry": {
        "type": "Point",
        "coordinates": [
          73.56697386951379,
          -47.42289337152525
        ]
      }
    },
    {
      "type": "Feature",
      "properties": {
        "norad_id": 66766,
        "name": "TRANSPORTER-15 DE",
        "group": "last-30-days",
        "lat": -58.67906564094943,
        "lon": 77.76301701744137,
        "alt_km": 519.1495005747929,
        "timestamp": "2025-12-19T16:54:42.967929+00:00",
        "meta_object_name": "TRANSPORTER-15 DE",
        "meta_object_id": "2025-276DE",
        "meta_epoch": "2025-12-19T04:31:13.244736",
        "meta_mean_motion": 15.18362733,
        "meta_eccentricity": 0.00020381,
        "meta_inclination": 97.4376,
        "meta_ra_of_asc_node": 64.8585,
        "meta_arg_of_pericenter": 93.0021,
        "meta_mean_anomaly": 267.1446,
        "meta_ephemeris_type": 0,
        "meta_classification_type": "U",
        "meta_norad_cat_id": 66766,
        "meta_element_set_no": 999,
        "meta_rev_at_epoch": 310,
        "meta_bstar": 0.00023489834,
        "meta_mean_motion_dot": 4.759e-05,
        "meta_mean_motion_ddot": 0,
        "tle_line1": "1 66766U 25276DE  25353.18834774  .00004759  00000+0  23490-3 0  9998",
        "tle_line2": "2 66766  97.4376  64.8585 0002038  93.0021 267.1446 15.18362733  3106"
      },
      "geometry": {
        "type": "Point",
        "coordinates": [
          77.76301701744137,
          -58.67906564094943
        ]
      }
    }
  ]
}